STARLINK-1172           
1 45074U 20006AG  23251.67198888  .00015140  00000+0  10327-2 0  9991
2 45074  53.0556  45.3165 0001223  75.3341 284.7783 15.06414224199468
STARLINK-1174           
1 45075U 20006AH  23251.57246709  .00007532  00000+0  52385-3 0  9994
2 45075  53.0547  45.7587 0001158  83.6551 276.4570 15.06410837199113
STARLINK-1180           
1 45076U 20006AJ  23251.57889679  .00016510  00000+0  11242-2 0  9996
2 45076  53.0553  45.7224 0001374  79.4099 280.7045 15.06414622199110
STARLINK-1177           
1 45078U 20006AL  23251.73095686  .00002153  00000+0  16338-3 0  9993
2 45078  53.0559  45.0461 0001155  89.8140 270.2982 15.06407395199127
STARLINK-1149           
1 45079U 20006AM  23251.70790125  .00016622  00000+0  11316-2 0  9997
2 45079  53.0557  45.1430 0001237  78.5809 281.5319 15.06418608199129
STARLINK-1153           
1 45080U 20006AN  23251.71621191  .00018412  00000+0  12510-2 0  9992
2 45080  53.0563  45.1157 0001304  92.4826 267.6313 15.06422421199131
STARLINK-1151           
1 45081U 20006AP  23250.83064759  .00008466  00000+0  58658-3 0  9998
2 45081  53.0545  49.0786 0001209  85.1503 274.9623 15.06399795199354
STARLINK-1160           
1 45082U 20006AQ  23251.15132967  .00010011  00000+0  69008-3 0  9992
2 45082  53.0561  47.6427 0001138  88.9018 271.2102 15.06397418199040
STARLINK-1190           
1 45083U 20006AR  23251.78071842  .00010813  00000+0  74343-3 0  9994
2 45083  53.0539  64.8266 0001337  99.2214 260.8926 15.06413729199202
STARLINK-1173           
1 45084U 20006AS  23251.56325725  .00017236  00000+0  11728-2 0  9996
2 45084  53.0561  25.8040 0001412  71.7757 288.3386 15.06412689199395
STARLINK-1179           
1 45085U 20006AT  23251.55956095  .00019045  00000+0  12931-2 0  9993
2 45085  53.0550  25.8191 0001153  92.4362 267.6759 15.06426722199392
STARLINK-1185           
1 45087U 20006AV  23251.74385672  .00018257  00000+0  12404-2 0  9992
2 45087  53.0563  24.9891 0001247 100.0582 260.0547 15.06429401199871
STARLINK-1183           
1 45088U 20006AW  23251.76597909  .00020795  00000+0  14100-2 0  9998
2 45088  53.0549  24.8917 0001197 102.7820 257.3303 15.06421159199424
STARLINK-1136           
1 45089U 20006AX  23251.64065572 -.00009941  00000+0 -64919-3 0  9998
2 45089  53.0554  25.5462 0001021  76.3615 283.7488 15.06411543199409
STARLINK-1176           
1 45090U 20006AY  23251.68393411  .00021815  00000+0  14777-2 0  9998
2 45090  53.0555  25.2495 0001113  99.0362 261.0753 15.06429667199419
STARLINK-1137           
1 45092U 20006BA  23251.79180072  .00015103  00000+0  10306-2 0  9996
2 45092  53.0558  24.7753 0001356  69.9157 290.1978 15.06401180199773
STARLINK-1142           
1 45093U 20006BB  23251.65540606  .00022355  00000+0  15140-2 0  9993
2 45093  53.0547  25.3893 0001286  64.6396 295.4726 15.06421819199751
STARLINK-1146           
1 45094U 20006BC  23251.53650917  .00018577  00000+0  12624-2 0  9993
2 45094  53.0556  25.9150 0001197 104.7029 255.4093 15.06410927199395
STARLINK-1147           
1 45095U 20006BD  23251.73923069  .00009067  00000+0  62644-3 0  9999
2 45095  53.0557  25.0046 0001319  94.2100 265.9039 15.06422495199772
STARLINK-1152           
1 45096U 20006BE  23251.66646024  .00017633  00000+0  11990-2 0  9990
2 45096  53.0553  25.3416 0001258  89.4765 270.6368 15.06421713199756
STARLINK-1184           
1 45098U 20006BG  23251.58168319  .00021713  00000+0  14712-2 0  9998
2 45098  53.0552  25.7216 0001299  74.9736 285.1397 15.06421843199398
STARLINK-1186           
1 45099U 20006BH  23251.74755622  .00009629  00000+0  66422-3 0  9994
2 45099  53.0558  24.9758 0001318  85.5023 274.6116 15.06411331199771
STARLINK-1193           
1 45100U 20006BJ  23251.57801166  .00007577  00000+0  52702-3 0  9999
2 45100  53.0549  25.7392 0001052  69.7211 290.3890 15.06397838199392
STARLINK-1194           
1 45101U 20006BK  23251.63970342  .00022569  00000+0  15281-2 0  9998
2 45101  53.0548  25.4497 0001063  94.3594 265.7517 15.06427053199750
STARLINK-1195           
1 45102U 20006BL  23251.72912056  .00022079  00000+0  14955-2 0  9990
2 45102  53.0559  25.0595 0001145 100.7318 259.3800 15.06424710199767
STARLINK-1196           
1 45103U 20006BM  23251.74743615  .00027475  00000+0  11960-2 0  9994
2 45103  53.0633  11.5823 0002085   7.7403 352.3625 15.22052431199955
STARLINK-1138           
1 45178U 20012A   23251.21677441  .00001176  00000+0  97815-4 0  9993
2 45178  53.0544 187.3549 0001409  82.3012 277.8137 15.06405257197091
STARLINK-1143           
1 45179U 20012B   23251.21951693  .00012985  00000+0  88856-3 0  9992
2 45179  53.0537 187.3339 0001105 102.4943 257.6170 15.06418081197150
STARLINK-1192           
1 45180U 20012C   23251.65097867  .00246467  00000+0  30802-2 0  9997
2 45180  53.0299 129.3052 0008634 185.0544 175.0382 15.58463448197368
STARLINK-1200           
1 45181U 20012D   23251.13937660  .00012763  00000+0  87372-3 0  9990
2 45181  53.0527 187.7051 0001516 105.3304 254.7852 15.06419141197148
STARLINK-1201           
1 45182U 20012E   23251.09330995  .00019287  00000+0  13097-2 0  9994
2 45182  53.0530 167.9131 0001413 101.9237 258.1911 15.06413682197266
STARLINK-1202           
1 45183U 20012F   23251.24258075  .00016437  00000+0  11191-2 0  9997
2 45183  53.0533 187.2423 0001251  88.3990 271.7143 15.06422747197162
STARLINK-1205           
1 45184U 20012G   23251.03431212  .00001992  00000+0  15255-3 0  9997
2 45184  53.0551 168.1748 0001477  92.5973 267.5185 15.06409768196446
STARLINK-1216           
1 45185U 20012H   23251.23518736  .00004534  00000+0  32293-3 0  9993
2 45185  53.0537 187.2739 0001584  96.8097 263.3072 15.06419547197105
STARLINK-1224           
1 45186U 20012J   23251.78072134  .00002043  00000+0  15595-3 0  9990
2 45186  53.0534 184.8297 0001513  89.4950 270.6213 15.06409299196596
STARLINK-1225           
1 45187U 20012K   23251.78441103  .00003533  00000+0  25593-3 0  9991
2 45187  53.0547 184.8071 0002420  95.1296 264.9970 15.06408218196345
STARLINK-1228           
1 45188U 20012L   23251.74755965  .00010962  00000+0  75385-3 0  9990
2 45188  53.0531 144.9751 0002193  75.0045 285.1186 15.06391454196805
STARLINK-1230           
1 45189U 20012M   23251.12462989  .00007613  00000+0  52916-3 0  9998
2 45189  53.0544 187.7741 0001603  97.7706 262.3465 15.06418339194362
STARLINK-1234           
1 45190U 20012N   23251.74017733  .00000030  00000+0  20937-4 0  9996
2 45190  53.0524 145.0094 0001388  96.7010 263.4137 15.06404597196818
STARLINK-1236           
1 45191U 20012P   23251.79547829  .00004750  00000+0  33763-3 0  9999
2 45191  53.0529 184.7599 0001277  95.9721 264.1414 15.06390140196590
STARLINK-1237           
1 45192U 20012Q   23251.10619456  .00007181  00000+0  50032-3 0  9990
2 45192  53.0542 187.8527 0001203  99.0871 261.0254 15.06409730197147
STARLINK-1239           
1 45193U 20012R   23251.09513540  .00022343  00000+0  15125-2 0  9996
2 45193  53.0538 187.9021 0001406 105.4445 254.6699 15.06438720197082
STARLINK-1240           
1 45194U 20012S   23251.23151935  .00017825  00000+0  12117-2 0  9996
2 45194  53.0538 187.2866 0001660 103.3407 256.7767 15.06425837197051
STARLINK-1244           
1 45196U 20012U   23251.21309107  .00017692  00000+0  12029-2 0  9996
2 45196  53.0533 187.3725 0001387 103.6350 256.4793 15.06422639197209
STARLINK-1269           
1 45197U 20012V   23251.79916218  .00009368  00000+0  64700-3 0  9992
2 45197  53.0518 184.7455 0001344  86.5485 273.5657 15.06398207196330
STARLINK-1154           
1 45198U 20012W   23251.78993656  .00006625  00000+0  46308-3 0  9990
2 45198  53.0534 164.7854 0001620  85.6704 274.4470 15.06412182196580
STARLINK-1197           
1 45199U 20012X   23251.06380912  .00017159  00000+0  11669-2 0  9992
2 45199  53.0535 168.0453 0001300  83.2928 276.8209 15.06435894197415
STARLINK-1199           
1 45201U 20012Z   23251.73465765  .00003899  00000+0  28047-3 0  9995
2 45201  53.0525 165.0366 0001834  83.2289 276.8909 15.06403241196574
STARLINK-1206           
1 45204U 20012AC  23251.76046024  .00017884  00000+0  12165-2 0  9996
2 45204  53.0534 164.9148 0001454 122.7441 237.3688 15.06399820196584
STARLINK-1208           
1 45205U 20012AD  23251.78256788  .00005442  00000+0  38385-3 0  9999
2 45205  53.0539 164.8135 0001654  96.5951 263.5226 15.06408387196590
STARLINK-1209           
1 45206U 20012AE  23251.67751819  .00004582  00000+0  32619-3 0  9991
2 45206  53.0518 145.2873 0002379  79.7864 280.3393 15.06411553196839
STARLINK-1210           
1 45207U 20012AF  23251.20756296  .00016173  00000+0  11017-2 0  9992
2 45207  53.0536 167.4009 0001406  98.1022 262.0127 15.06414622197437
STARLINK-1211           
1 45208U 20012AG  23251.02064743  .00000327  00000+0  60264-5 0  9997
2 45208  53.0012  99.5020 0004037 271.3315  88.7241 15.76731784198235
STARLINK-1219           
1 45210U 20012AJ  23251.74201907  .00008961  00000+0  61966-3 0  9994
2 45210  53.0532 165.0012 0002228  82.7410 277.3832 15.06402413196579
STARLINK-1231           
1 45212U 20012AL  23251.04538061  .00025680  00000+0  17349-2 0  9995
2 45212  53.0535 168.1254 0001480 102.0279 258.0876 15.06437151197363
STARLINK-1232           
1 45213U 20012AM  23251.47703667  .00070283  00000+0  62536-3 0  9997
2 45213  53.0483 357.7118 0001950 303.3050  56.7778 15.67873488199861
STARLINK-1233           
1 45214U 20012AN  23251.74844602  .00003286  00000+0  23932-3 0  9999
2 45214  53.0527 164.9588 0001573  96.6773 263.4395 15.06408617196573
STARLINK-1245           
1 45215U 20012AP  23251.74571809  .00000163  00000+0  29854-4 0  9997
2 45215  53.0536 164.9831 0002315  98.3998 261.7253 15.06405051196571
STARLINK-1271           
1 45217U 20012AR  23251.78624986  .00000045  00000+0  21936-4 0  9990
2 45217  53.0543 164.7999 0001278  88.3743 271.7392 15.06404335196588
